[{"id":"66781","name":"LEMUR-2-CELIJO-SB-PK","tle1":"1 66781U 25276DW  26176.17490177  .00007231  00000+0  58444-3 0  9998","tle2":"2 66781  97.5235 246.6902 0008247 113.4299 246.7793 15.00063981 23826"},{"id":"66782","name":"LEMUR-2-FINNIAN","tle1":"1 66782U 25276DX  26175.14942811  .00004572  00000+0  36763-3 0  9997","tle2":"2 66782  97.5309 245.9209 0008701  68.8843 291.3311 15.00446823 21048"},{"id":"66783","name":"LEMUR-2-STARLIGHT","tle1":"1 66783U 25276DY  26176.17996615  .00007273  00000+0  60143-3 0  9993","tle2":"2 66783  97.5246 246.5457 0014772 105.2884 254.9974 14.99120149 31393"},{"id":"66784","name":"LEMUR-2-TARTIFLETTE","tle1":"1 66784U 25276DZ  26176.17832303  .00006043  00000+0  50060-3 0  9998","tle2":"2 66784  97.5250 246.5516 0013725 112.1616 248.1065 14.99135685 31399"},{"id":"66785","name":"LEMUR-2-VUKASIN","tle1":"1 66785U 25276EA  26176.16506182  .00001440  00000+0  11907-3 0  9994","tle2":"2 66785  97.5300 246.8556 0005344 103.9516 256.2303 15.00420110 31341"},{"id":"66786","name":"LEMUR-2-HOTSPUR-TOM","tle1":"1 66786U 25276EB  26176.17144154  .00006418  00000+0  53249-3 0  9998","tle2":"2 66786  97.5247 246.5245 0014882 104.5286 255.7590 14.99035144 31328"},{"id":"66787","name":"LEMUR-2-MYRA","tle1":"1 66787U 25276EC  26176.13040788  .00008265  00000+0  66072-3 0  9993","tle2":"2 66787  97.5219 246.7508 0017519 115.7874 244.5160 15.00347696 31408"},{"id":"67363","name":"LEMUR-2 FIKRETDENGIZ","tle1":"1 67363U 26004A   26176.00022828  .00004188  00000+0  45755-3 0  9990","tle2":"2 67363  97.8016 174.4381 0010483 111.0764 249.1575 14.88374851 24448"},{"id":"67364","name":"TWILIGHT-1 OBJECT B","tle1":"1 67364U 26004B   26176.22978461  .00001800  00000+0  20329-3 0  9996","tle2":"2 67364  97.8064 174.6758 0010239 101.7744 258.4622 14.87727880 24488"},{"id":"67365","name":"LEMUR-2-MARIO-SOUSA","tle1":"1 67365U 26004C   26176.25172014  .00004664  00000+0  50633-3 0  9992","tle2":"2 67365  97.7987 174.6815 0010073 111.2798 248.9495 14.88571933 24497"},{"id":"67367","name":"LEMUR-2-SONNENBLUME","tle1":"1 67367U 26004E   26175.44447868  .00002176  00000+0  24082-3 0  9991","tle2":"2 67367  97.7985 173.8683 0009569 114.8660 245.3553 14.88347783 24373"},{"id":"67368","name":"LEMUR-2-WOBLER","tle1":"1 67368U 26004F   26176.31082684  .00003705  00000+0  40361-3 0  9997","tle2":"2 67368  97.8040 174.8514 0009954 103.5567 256.6759 14.88567071 24502"},{"id":"67370","name":"LEMUR-2-GRAM-E-SUE","tle1":"1 67370U 26004H   26176.23454557  .00002285  00000+0  25165-3 0  9990","tle2":"2 67370  97.7975 174.6616 0008684 114.0103 246.2024 14.88503475 24490"},{"id":"67387","name":"LEMUR-2-KATIE","tle1":"1 67387U 26004AA  26176.28042681  .00004028  00000+0  42237-3 0  9990","tle2":"2 67387  97.8034 175.1923 0004764  76.4507 283.7242 14.90093964 24517"},{"id":"67388","name":"LEMUR-2-HCS-BAZUS","tle1":"1 67388U 26004AB  26175.94355572  .00005938  00000+0  61912-3 0  9991","tle2":"2 67388  97.8022 174.8399 0004262  75.6154 284.5536 14.90136625 24461"}]